ONEWEB-0116             
1 48046U 21025E   24321.01601747  .00000242  00000+0  62815-3 0  9992
2 48046  87.8924  75.2050 0001802  98.4630 261.6703 13.13473394177752
ONEWEB-0150             
1 48047U 21025F   24320.60973596  .00000110  00000+0  26576-3 0  9999
2 48047  87.8913  75.2960 0001628 107.0390 253.0918 13.13471727177590
ONEWEB-0107             
1 48048U 21025G   24321.06839830 -.00001071  00000+0 -29683-2 0  9993
2 48048  87.8914  75.2022 0001177 106.8625 253.2633 13.13478470177631
ONEWEB-0101             
1 48049U 21025H   24321.03188549 -.00000521  00000+0 -14617-2 0  9995
2 48049  87.8924  75.2350 0001588  98.8183 261.3126 13.13469424177605
ONEWEB-0113             
1 48050U 21025J   24321.08585323  .00000309  00000+0  81221-3 0  9991
2 48050  87.8925  75.2047 0001735  99.4667 260.6658 13.13472820177694
ONEWEB-0112             
1 48051U 21025K   24321.07314747 -.00000194  00000+0 -56660-3 0  9994
2 48051  87.8915  75.1986 0001681 103.4982 256.6334 13.13470257177712
ONEWEB-0156             
1 48052U 21025L   24320.62560715  .00000385  00000+0  10180-2 0  9999
2 48052  87.8922  75.2911 0001653 102.1839 257.9476 13.13472095177629
ONEWEB-0161             
1 48053U 21025M   24320.59863532 -.00004540  00000+0 -12470-1 0  9991
2 48053  87.8920  75.3075 0002003  91.4605 268.6753 13.13492632177560
